NORAD_CAT_ID,OBJECT_NAME,OBJECT_TYPE,EPOCH,MEAN_MOTION,ECCENTRICITY,INCLINATION,RA_OF_ASC_NODE,ARG_OF_PERICENTER,MEAN_ANOMALY,BSTAR,MEAN_MOTION_DOT,MEAN_MOTION_DDOT,TLE_LINE0,TLE_LINE1,TLE_LINE2,SEMIMAJOR_AXIS,PERIOD,APOGEE,PERIGEE,DECAYED
53850.0,STARLINK-4767,PAYLOAD,2023-12-05 10:45:45,15.08841067,0.0001654,53.2203,38.3971,81.0658,279.0522,0.00037024,5.609e-05,0.0,0 STARLINK-4767,1 53850U 22114AJ  23339.44844428  .00005609  00000-0  37024-3 0  9998,2 53850  53.2203  38.3971 0001654  81.0658 279.0522 15.08841067 67856,6917.877,95.437,540.886,538.598,0.0
53850.0,STARLINK-4767,PAYLOAD,2023-12-06 04:15:00,15.08849573,0.0001777,53.2194,35.1236,68.6629,291.4553,5.6415e-05,6.1e-06,0.0,0 STARLINK-4767,1 53850U 22114AJ  23340.17709065  .00000610  00000-0  56415-4 0  9990,2 53850  53.2194  35.1236 0001777  68.6629 291.4553 15.08849573 67963,6917.851,95.437,540.945,538.487,0.0
53850.0,STARLINK-4767,PAYLOAD,2023-12-06 10:36:33,15.0884605,0.0001493,53.2196,33.9296,98.669,261.4471,-2.9748e-05,-7.61e-06,0.0,0 STARLINK-4767,1 53850U 22114AJ  23340.44205223 -.00000761  00000-0 -29748-4 0  9995,2 53850  53.2196  33.9296 0001493  98.6690 261.4471 15.08846050 68002,6917.862,95.437,540.76,538.694,0.0
53850.0,STARLINK-4767,PAYLOAD,2023-12-07 10:27:20,15.08834419,0.0001558,53.2191,29.4719,92.547,267.5701,-0.0002368,-4.054e-05,0.0,0 STARLINK-4767,1 53850U 22114AJ  23341.43565349 -.00004054  00000-0 -23680-3 0  9990,2 53850  53.2191  29.4719 0001558  92.5470 267.5701 15.08834419 68153,6917.897,95.438,540.84,538.685,0.0
53850.0,STARLINK-4767,PAYLOAD,2023-12-08 11:53:30,15.08832662,0.0001494,53.2185,24.7101,82.9366,277.1796,-2.6178e-05,-7.04e-06,0.0,0 STARLINK-4767,1 53850U 22114AJ  23342.49549358 -.00000704  00000-0 -26178-4 0  9993,2 53850  53.2185  24.7101 0001494  82.9366 277.1796 15.08832662 68312,6917.903,95.438,540.801,538.734,0.0
53850.0,STARLINK-4767,PAYLOAD,2023-12-09 10:08:54,15.08828888,0.0001406,53.218,20.5482,88.1989,271.9164,0.00018757,2.698e-05,0.0,0 STARLINK-4767,1 53850U 22114AJ  23343.42285265  .00002698  00000-0  18757-3 0  9996,2 53850  53.2180  20.5482 0001406  88.1989 271.9164 15.08828888 68995,6917.914,95.438,540.752,538.807,0.0
53850.0,STARLINK-4767,PAYLOAD,2023-12-10 11:35:05,15.08837355,0.0001488,53.2183,15.7924,82.9745,277.1417,9.3556e-05,1.201e-05,0.0,0 STARLINK-4767,1 53850U 22114AJ  23344.48269677  .00001201  00000-0  93556-4 0  9992,2 53850  53.2183  15.7924 0001488  82.9745 277.1417 15.08837355 68614,6917.888,95.438,540.783,538.724,0.0
53850.0,STARLINK-4767,PAYLOAD,2023-12-11 08:15:05,15.0884236,0.0001668,53.2186,11.9249,73.9885,286.1291,4.815e-05,4.78e-06,0.0,0 STARLINK-4767,1 53850U 22114AJ  23345.34381620  .00000478  00000-0  48150-4 0  9996,2 53850  53.2186  11.9249 0001668  73.9885 286.1291 15.08842360 69286,6917.873,95.437,540.892,538.584,0.0
53850.0,STARLINK-4767,PAYLOAD,2023-12-12 08:05:52,15.08842364,0.0001599,53.2181,7.4647,78.9644,281.1528,5.5203e-05,5.91e-06,0.0,0 STARLINK-4767,1 53850U 22114AJ  23346.33741483  .00000591  00000-0  55203-4 0  9996,2 53850  53.2181   7.4647 0001599  78.9644 281.1528 15.08842364 68892,6917.873,95.437,540.844,538.632,0.0
53850.0,STARLINK-4767,PAYLOAD,2023-12-13 07:56:39,15.08839267,0.0001571,53.2185,3.0035,102.1401,257.9767,1.4583e-05,-5.6e-07,0.0,0 STARLINK-4767,1 53850U 22114AJ  23347.33101622 -.00000056  00000-0  14583-4 0  9995,2 53850  53.2185   3.0035 0001571 102.1401 257.9767 15.08839267 69581,6917.883,95.438,540.834,538.661,0.0
53850.0,STARLINK-4767,PAYLOAD,2023-12-14 07:47:26,15.08839129,0.000162,53.2186,358.5449,110.1825,249.9341,4.274e-05,3.92e-06,0.0,0 STARLINK-4767,1 53850U 22114AJ  23348.32461588  .00000392  00000-0  42740-4 0  9993,2 53850  53.2186 358.5449 0001620 110.1825 249.9341 15.08839129 69736,6917.883,95.438,540.869,538.627,0.0
53850.0,STARLINK-4767,PAYLOAD,2023-12-15 04:27:27,15.08837715,0.0001414,53.2178,354.6744,91.7271,268.3883,3.7063e-05,3.02e-06,0.0,0 STARLINK-4767,1 53850U 22114AJ  23349.18573847  .00000302  00000-0  37063-4 0  9993,2 53850  53.2178 354.6744 0001414  91.7271 268.3883 15.08837715 69322,6917.887,95.438,540.731,538.774,0.0
53850.0,STARLINK-4767,PAYLOAD,2023-12-15 07:38:13,15.08839309,0.0001425,53.2179,354.0802,91.1635,268.9521,4.9206e-05,4.95e-06,0.0,0 STARLINK-4767,1 53850U 22114AJ  23349.31821738  .00000495  00000-0  49206-4 0  9998,2 53850  53.2179 354.0802 0001425  91.1635 268.9521 15.08839309 69889,6917.883,95.438,540.733,538.762,0.0
53850.0,STARLINK-4767,PAYLOAD,2023-12-16 07:29:01,15.0883441,0.000146,53.2178,349.6229,96.7353,263.3805,1.4035e-05,-6.5e-07,0.0,0 STARLINK-4767,1 53850U 22114AJ  23350.31182558 -.00000065  00000-0  14035-4 0  9996,2 53850  53.2178 349.6229 0001460  96.7353 263.3805 15.08834410 69497,6917.897,95.438,540.772,538.752,0.0
53850.0,STARLINK-4767,PAYLOAD,2023-12-17 07:19:48,15.08840219,0.0001454,53.218,345.162,81.2765,278.8392,6.5553e-05,7.55e-06,0.0,0 STARLINK-4767,1 53850U 22114AJ  23351.30542419  .00000755  00000-0  65553-4 0  9998,2 53850  53.2180 345.1620 0001454  81.2765 278.8392 15.08840219 70189,6917.88,95.438,540.751,538.739,0.0
53850.0,STARLINK-4767,PAYLOAD,2023-12-18 07:10:35,15.08850146,0.0001836,53.2192,340.7004,65.3785,294.7399,0.00017899,2.562e-05,0.0,0 STARLINK-4767,1 53850U 22114AJ  23352.29901731  .00002562  00000-0  17899-3 0  9990,2 53850  53.2192 340.7004 0001836  65.3785 294.7399 15.08850146 69797,6917.849,95.437,540.984,538.444,0.0
53850.0,STARLINK-4767,PAYLOAD,2023-12-19 03:50:37,15.08838155,0.0001651,53.2193,336.8403,64.834,295.2823,1.7426e-05,-1.1e-07,0.0,0 STARLINK-4767,1 53850U 22114AJ  23353.16015059 -.00000011  00000-0  17426-4 0  9991,2 53850  53.2193 336.8403 0001651  64.8340 295.2823 15.08838155 69922,6917.886,95.438,540.893,538.609,0.0
53850.0,STARLINK-4767,PAYLOAD,2023-12-19 05:26:00,15.08840125,0.0002022,53.2196,336.5382,63.9765,296.1435,4.4714e-05,4.23e-06,0.0,0 STARLINK-4767,1 53850U 22114AJ  23353.22638985  .00000423  00000-0  44714-4 0  9993,2 53850  53.2196 336.5382 0002022  63.9765 296.1435 15.08840125 70473,6917.88,95.438,541.144,538.346,0.0
53850.0,STARLINK-4767,PAYLOAD,2023-12-20 05:16:46,15.08846226,0.0001649,53.2188,332.0759,78.3294,281.7883,-2.4305e-05,-6.75e-06,0.0,0 STARLINK-4767,1 53850U 22114AJ  23354.21998700 -.00000675  00000-0 -24305-4 0  9992,2 53850  53.2188 332.0759 0001649  78.3294 281.7883 15.08846226 70086,6917.861,95.437,540.867,538.586,0.0
53850.0,STARLINK-4767,PAYLOAD,2023-12-21 03:32:10,15.08845987,0.0001688,53.2178,327.914,89.9851,270.1335,0.00024908,3.679e-05,0.0,0 STARLINK-4767,1 53850U 22114AJ  23355.14734635  .00003679  00000-0  24908-3 0  9993,2 53850  53.2178 327.9140 0001688  89.9851 270.1335 15.08845987 70764,6917.862,95.437,540.895,538.559,0.0
53850.0,STARLINK-4767,PAYLOAD,2023-12-22 03:22:57,15.08839722,0.0001802,53.2175,323.4584,121.7656,238.3512,7.4875e-06,-1.69e-06,0.0,0 STARLINK-4767,1 53850U 22114AJ  23356.14094887 -.00000169  00000-0  74875-5 0  9994,2 53850  53.2175 323.4584 0001802 121.7656 238.3512 15.08839722 70370,6917.881,95.438,540.993,538.5,0.0
53850.0,STARLINK-4767,PAYLOAD,2023-12-23 06:24:31,15.08845868,0.0001537,53.2181,318.4033,99.0189,261.0978,6.0845e-05,6.81e-06,0.0,0 STARLINK-4767,1 53850U 22114AJ  23357.26702718  .00000681  00000-0  60845-4 0  9996,2 53850  53.2181 318.4033 0001537  99.0189 261.0978 15.08845868 70549,6917.862,95.437,540.791,538.664,0.0
53850.0,STARLINK-4767,PAYLOAD,2023-12-24 03:04:32,15.0884211,0.0001331,53.2163,314.5363,87.7615,272.353,0.00019568,2.828e-05,0.0,0 STARLINK-4767,1 53850U 22114AJ  23358.12815340  .00002828  00000-0  19568-3 0  9998,2 53850  53.2163 314.5363 0001331  87.7615 272.3530 15.08842110 70672,6917.874,95.437,540.66,538.818,0.0
53850.0,STARLINK-4767,PAYLOAD,2023-12-24 06:15:18,15.08850407,0.0001402,53.2167,313.9398,100.9163,259.1987,0.00037353,5.663e-05,0.0,0 STARLINK-4767,1 53850U 22114AJ  23358.26063239  .00005663  00000-0  37353-3 0  9997,2 53850  53.2167 313.9398 0001402 100.9163 259.1987 15.08850407 71232,6917.849,95.437,540.683,538.744,0.0
53850.0,STARLINK-4767,PAYLOAD,2023-12-25 04:30:42,15.08854717,0.0001386,53.2171,309.7758,90.5985,269.5166,0.00029579,4.425e-05,0.0,0 STARLINK-4767,1 53850U 22114AJ  23359.18798630  .00004425  00000-0  29579-3 0  9995,2 53850  53.2171 309.7758 0001386  90.5985 269.5166 15.08854717 70834,6917.835,95.437,540.659,538.742,0.0
53850.0,STARLINK-4767,PAYLOAD,2023-12-25 20:24:34,15.08834263,0.0001483,53.2179,306.7951,121.2457,238.8681,-9.5952e-05,-1.814e-05,0.0,0 STARLINK-4767,1 53850U 22114AJ  23359.85039432 -.00001814  00000-0 -95952-4 0  9997,2 53850  53.2179 306.7951 0001483 121.2457 238.8681 15.08834263 70934,6917.898,95.438,540.789,538.737,0.0
53850.0,STARLINK-4767,PAYLOAD,2023-12-26 02:46:06,15.08839559,0.0001488,53.2164,305.6123,96.1155,264.0007,0.00011476,1.539e-05,0.0,0 STARLINK-4767,1 53850U 22114AJ  23360.11535411  .00001539  00000-0  11476-3 0  9996,2 53850  53.2164 305.6123 0001488  96.1155 264.0007 15.08839559 70977,6917.882,95.438,540.776,538.717,0.0
53850.0,STARLINK-4767,PAYLOAD,2023-12-26 20:15:21,15.08844251,0.0001488,53.2163,302.3417,103.2762,256.8396,0.00029442,4.401e-05,0.0,0 STARLINK-4767,1 53850U 22114AJ  23360.84399545  .00004401  00000-0  29442-3 0  9995,2 53850  53.2163 302.3417 0001488 103.2762 256.8396 15.08844251 71628,6917.867,95.437,540.762,538.703,0.0
53850.0,STARLINK-4767,PAYLOAD,2023-12-27 02:36:53,15.08852746,0.0001632,53.2164,301.1536,86.0084,274.1095,0.00060257,9.318e-05,0.0,0 STARLINK-4767,1 53850U 22114AJ  23361.10895434  .00009318  00000-0  60257-3 0  9994,2 53850  53.2164 301.1536 0001632  86.0084 274.1095 15.08852746 71126,6917.841,95.437,540.835,538.577,0.0
53850.0,STARLINK-4767,PAYLOAD,2023-12-27 20:06:08,15.08843623,0.0001609,53.2163,297.8815,91.4999,268.6178,0.00024427,3.602e-05,0.0,0 STARLINK-4767,1 53850U 22114AJ  23361.83759693  .00003602  00000-0  24427-3 0  9999,2 53850  53.2163 297.8815 0001609  91.4999 268.6178 15.08843623 71231,6917.869,95.437,540.847,538.621,0.0
